{
  "type": "FeatureCollection",
  "features": [
    {
      "type": "Feature",
      "properties": {
        "norad_id": 34572,
        "name": "COSMOS 2251 DEB",
        "group": "cosmos-2251-debris",
        "lat": -44.86853249859568,
        "lon": -69.39828406587216,
        "alt_km": 710.1357626393537,
        "timestamp": "2025-12-24T03:53:30.041887+00:00",
        "meta_object_name": "COSMOS 2251 DEB",
        "meta_object_id": "1993-036VJ",
        "meta_epoch": "2025-12-22T08:04:06.005568",
        "meta_mean_motion": 14.50188694,
        "meta_eccentricity": 0.00616659,
        "meta_inclination": 74.0115,
        "meta_ra_of_asc_node": 97.4527,
        "meta_arg_of_pericenter": 169.5509,
        "meta_mean_anomaly": 247.8934,
        "meta_ephemeris_type": 0,
        "meta_classification_type": "U",
        "meta_norad_cat_id": 34572,
        "meta_element_set_no": 999,
        "meta_rev_at_epoch": 87517,
        "meta_bstar": 0.0026494819,
        "meta_mean_motion_dot": 0.00010544,
        "meta_mean_motion_ddot": 0,
        "tle_line1": "1 34572U 93036VJ  25356.33618062  .00010544  00000+0  26495-2 0  9993",
        "tle_line2": "2 34572  74.0115  97.4527 0061665 169.5509 247.8934 14.50188694875175"
      },
      "geometry": {
        "type": "Point",
        "coordinates": [
          -69.39828406587216,
          -44.86853249859568
        ]
      }
    },
    {
      "type": "Feature",
      "properties": {
        "norad_id": 34574,
        "name": "COSMOS 2251 DEB",
        "group": "cosmos-2251-debris",
        "lat": -54.10033713025929,
        "lon": -135.75093216158135,
        "alt_km": 710.1199919224109,
        "timestamp": "2025-12-24T03:53:30.041898+00:00",
        "meta_object_name": "COSMOS 2251 DEB",
        "meta_object_id": "1993-036VL",
        "meta_epoch": "2025-12-22T03:43:37.953696",
        "meta_mean_motion": 14.70698881,
        "meta_eccentricity": 0.00671818,
        "meta_inclination": 74.0679,
        "meta_ra_of_asc_node": 24.8931,
        "meta_arg_of_pericenter": 42.8565,
        "meta_mean_anomaly": 13.7462,
        "meta_ephemeris_type": 0,
        "meta_classification_type": "U",
        "meta_norad_cat_id": 34574,
        "meta_element_set_no": 999,
        "meta_rev_at_epoch": 88917,
        "meta_bstar": 0.00094180568,
        "meta_mean_motion_dot": 5.915e-05,
        "meta_mean_motion_ddot": 0,
        "tle_line1": "1 34574U 93036VL  25356.15530039  .00005915  00000+0  94181-3 0  9996",
        "tle_line2": "2 34574  74.0679  24.8931 0067181  42.8565  13.7462 14.70698881889176"
      },
      "geometry": {
        "type": "Point",
        "coordinates": [
          -135.75093216158135,
          -54.10033713025929
        ]
      }
    },
    {
      "type": "Feature",
      "properties": {
        "norad_id": 34576,
        "name": "COSMOS 2251 DEB",
        "group": "cosmos-2251-debris",
        "lat": -53.927720741768496,
        "lon": 93.4166199613948,
        "alt_km": 710.5032842266228,
        "timestamp": "2025-12-24T03:53:30.041908+00:00",
        "meta_object_name": "COSMOS 2251 DEB",
        "meta_object_id": "1993-036VN",
        "meta_epoch": "2025-12-23T18:57:14.793120",
        "meta_mean_motion": 14.55498804,
        "meta_eccentricity": 0.000825,
        "meta_inclination": 74.0346,
        "meta_ra_of_asc_node": 117.2624,
        "meta_arg_of_pericenter": 255.3158,
        "meta_mean_anomaly": 256.967,
        "meta_ephemeris_type": 0,
        "meta_classification_type": "U",
        "meta_norad_cat_id": 34576,
        "meta_element_set_no": 999,
        "meta_rev_at_epoch": 88627,
        "meta_bstar": 0.00086025,
        "meta_mean_motion_dot": 3.72e-05,
        "meta_mean_motion_ddot": 0,
        "tle_line1": "1 34576U 93036VN  25357.78975455  .00003720  00000+0  86025-3 0  9993",
        "tle_line2": "2 34576  74.0346 117.2624 0008250 255.3158 256.9670 14.55498804886272"
      },
      "geometry": {
        "type": "Point",
        "coordinates": [
          93.4166199613948,
          -53.927720741768496
        ]
      }
    },
    {
      "type": "Feature",
      "properties": {
        "norad_id": 34579,
        "name": "COSMOS 2251 DEB",
        "group": "cosmos-2251-debris",
        "lat": 68.73504127078351,
        "lon": -24.661019075389667,
        "alt_km": 752.824310748857,
        "timestamp": "2025-12-24T03:53:30.041918+00:00",
        "meta_object_name": "COSMOS 2251 DEB",
        "meta_object_id": "1993-036VR",
        "meta_epoch": "2025-12-23T18:00:05.920992",
        "meta_mean_motion": 14.45336149,
        "meta_eccentricity": 0.0027497,
        "meta_inclination": 74.0514,
        "meta_ra_of_asc_node": 203.3946,
        "meta_arg_of_pericenter": 270.4064,
        "meta_mean_anomaly": 210.596,
        "meta_ephemeris_type": 0,
        "meta_classification_type": "U",
        "meta_norad_cat_id": 34579,
        "meta_element_set_no": 999,
        "meta_rev_at_epoch": 88333,
        "meta_bstar": 0.00032404,
        "meta_mean_motion_dot": 1.117e-05,
        "meta_mean_motion_ddot": 0,
        "tle_line1": "1 34579U 93036VR  25357.75006853  .00001117  00000+0  32404-3 0  9990",
        "tle_line2": "2 34579  74.0514 203.3946 0027497 270.4064 210.5960 14.45336149883338"
      },
      "geometry": {
        "type": "Point",
        "coordinates": [
          -24.661019075389667,
          68.73504127078351
        ]
      }
    },
    {
      "type": "Feature",
      "properties": {
        "norad_id": 34582,
        "name": "COSMOS 2251 DEB",
        "group": "cosmos-2251-debris",
        "lat": -37.07082041950992,
        "lon": -121.367542834218,
        "alt_km": 725.938792122648,
        "timestamp": "2025-12-24T03:53:30.041928+00:00",
        "meta_object_name": "COSMOS 2251 DEB",
        "meta_object_id": "1993-036VU",
        "meta_epoch": "2025-12-22T17:08:14.927424",
        "meta_mean_motion": 14.43373223,
        "meta_eccentricity": 0.0048415,
        "meta_inclination": 74.0196,
        "meta_ra_of_asc_node": 253.8278,
        "meta_arg_of_pericenter": 1.8359,
        "meta_mean_anomaly": 358.2965,
        "meta_ephemeris_type": 0,
        "meta_classification_type": "U",
        "meta_norad_cat_id": 34582,
        "meta_element_set_no": 999,
        "meta_rev_at_epoch": 88091,
        "meta_bstar": 0.00069321765,
        "meta_mean_motion_dot": 2.346e-05,
        "meta_mean_motion_ddot": 0,
        "tle_line1": "1 34582U 93036VU  25356.71406166  .00002346  00000+0  69322-3 0  9994",
        "tle_line2": "2 34582  74.0196 253.8278 0048415   1.8359 358.2965 14.43373223880910"
      },
      "geometry": {
        "type": "Point",
        "coordinates": [
          -121.367542834218,
          -37.07082041950992
        ]
      }
    },
    {
      "type": "Feature",
      "properties": {
        "norad_id": 34588,
        "name": "COSMOS 2251 DEB",
        "group": "cosmos-2251-debris",
        "lat": -35.93025097151062,
        "lon": -124.8766520951387,
        "alt_km": 745.0942470168284,
        "timestamp": "2025-12-24T03:53:30.041938+00:00",
        "meta_object_name": "COSMOS 2251 DEB",
        "meta_object_id": "1993-036WA",
        "meta_epoch": "2025-12-23T03:47:51.377856",
        "meta_mean_motion": 14.42050655,
        "meta_eccentricity": 0.00192935,
        "meta_inclination": 74.0427,
        "meta_ra_of_asc_node": 248.9501,
        "meta_arg_of_pericenter": 300.6311,
        "meta_mean_anomaly": 212.1349,
        "meta_ephemeris_type": 0,
        "meta_classification_type": "U",
        "meta_norad_cat_id": 34588,
        "meta_element_set_no": 999,
        "meta_rev_at_epoch": 88100,
        "meta_bstar": 0.00038418829,
        "meta_mean_motion_dot": 1.238e-05,
        "meta_mean_motion_ddot": 0,
        "tle_line1": "1 34588U 93036WA  25357.15823354  .00001238  00000+0  38419-3 0  9993",
        "tle_line2": "2 34588  74.0427 248.9501 0019293 300.6311 212.1349 14.42050655881002"
      },
      "geometry": {
        "type": "Point",
        "coordinates": [
          -124.8766520951387,
          -35.93025097151062
        ]
      }
    },
    {
      "type": "Feature",
      "properties": {
        "norad_id": 34589,
        "name": "COSMOS 2251 DEB",
        "group": "cosmos-2251-debris",
        "lat": 27.080838435504745,
        "lon": 45.04695438583772,
        "alt_km": 821.2734393497403,
        "timestamp": "2025-12-24T03:53:30.041948+00:00",
        "meta_object_name": "COSMOS 2251 DEB",
        "meta_object_id": "1993-036WB",
        "meta_epoch": "2025-12-22T21:28:19.587360",
        "meta_mean_motion": 13.8606442,
        "meta_eccentricity": 0.0252311,
        "meta_inclination": 73.9251,
        "meta_ra_of_asc_node": 38.7279,
        "meta_arg_of_pericenter": 340.0599,
        "meta_mean_anomaly": 203.9876,
        "meta_ephemeris_type": 0,
        "meta_classification_type": "U",
        "meta_norad_cat_id": 34589,
        "meta_element_set_no": 999,
        "meta_rev_at_epoch": 84852,
        "meta_bstar": 0.00040697,
        "meta_mean_motion_dot": 5.77e-06,
        "meta_mean_motion_ddot": 0,
        "tle_line1": "1 34589U 93036WB  25356.89467115  .00000577  00000+0  40697-3 0  9999",
        "tle_line2": "2 34589  73.9251  38.7279 0252311 340.0599 203.9876 13.86064420848524"
      },
      "geometry": {
        "type": "Point",
        "coordinates": [
          45.04695438583772,
          27.080838435504745
        ]
      }
    }
  ]
}